     3.04           N: GNSS NAV DATA    M: Mixed            RINEX VERSION / TYPE
RTKCONV demo5 b34i                      20250404 104839 UTC PGM / RUN BY / DATE 
format: u-blox UBX                                          COMMENT             
log: D:\20242\demo5_b34i\data\HoDenLu\rieng\hdl1_0m.ubx     COMMENT             
                                                            END OF HEADER       
G13 2025 04 04 12 00 00  .699931755662D-03  .568434188608D-12  .000000000000D+00
      .230000000000D+02 -.582500000000D+02  .430267922386D-08 -.313017398111D+00
     -.295415520668D-05  .900921609718D-02  .887364149094D-05  .515368244362D+04
      .475200000000D+06 -.391155481339D-07 -.125362970680D+01  .124797224998D-06
      .973165441207D+00  .218312500000D+03  .954186848432D+00 -.793925927344D-08
      .406802659249D-09  .100000000000D+01  .236000000000D+04  .000000000000D+00
      .200000000000D+01  .000000000000D+00 -.116415321827D-07  .230000000000D+02
      .470916000000D+06  .400000000000D+01
G05 2025 04 04 12 00 00 -.206358730793D-03 -.102318153949D-11  .000000000000D+00
      .380000000000D+02 -.814375000000D+02  .401766735197D-08  .251176802179D+00
     -.408850610256D-05  .565981015097D-02  .526197254658D-05  .515378177643D+04
      .475200000000D+06 -.145286321640D-06 -.249308584987D+01  .223517417908D-07
      .975887236866D+00  .287093750000D+03  .132002706141D+01 -.805426406386D-08
      .214294640518D-10  .100000000000D+01  .236000000000D+04  .000000000000D+00
      .200000000000D+01  .000000000000D+00 -.107102096081D-07  .380000000000D+02
      .470916000000D+06  .400000000000D+01
G20 2025 04 04 12 00 00  .365242827684D-03 -.227373675443D-12  .000000000000D+00
      .190000000000D+02 -.757500000000D+02  .443411327004D-08 -.181647821995D+01
     -.386685132980D-05  .356698455289D-02  .432878732681D-05  .515374650002D+04
      .475200000000D+06  .465661287308D-07 -.262729459668D+01 -.447034835815D-07
      .958091779088D+00  .294031250000D+03 -.227011938646D+01 -.818391232137D-08
      .435732435719D-10  .100000000000D+01  .236000000000D+04  .000000000000D+00
      .200000000000D+01  .000000000000D+00 -.838190317154D-08  .190000000000D+02
      .470916000000D+06  .400000000000D+01
G11 2025 04 04 12 00 00 -.732568092644D-03  .454747350886D-11  .000000000000D+00
      .186000000000D+03  .215000000000D+02  .438732560686D-08 -.881852584586D+00
      .108033418655D-05  .170440832153D-02  .288523733616D-05  .515363930893D+04
      .475200000000D+06  .633299350739D-07  .283646758733D+01 -.931322574615D-08
      .965835020574D+00  .329312500000D+03 -.236320742542D+01 -.828213069827D-08
     -.664313385605D-10  .100000000000D+01  .236000000000D+04  .000000000000D+00
      .200000000000D+01  .000000000000D+00 -.884756445885D-08  .442000000000D+03
      .470916000000D+06  .400000000000D+01
G15 2025 04 04 12 00 00  .281605869532D-03  .420641299570D-11  .000000000000D+00
      .660000000000D+02 -.775625000000D+02  .497092134454D-08 -.112010117886D+01
     -.363029539585D-05  .161838555941D-01  .860355794430D-05  .515378585815D+04
      .475200000000D+06 -.141561031342D-06 -.156009445199D+01  .376254320145D-06
      .938297881587D+00  .201812500000D+03  .140251488081D+01 -.833677583161D-08
      .358229207399D-09  .100000000000D+01  .236000000000D+04  .000000000000D+00
      .200000000000D+01  .000000000000D+00 -.102445483208D-07  .660000000000D+02
      .470916000000D+06  .400000000000D+01
G12 2025 04 04 12 00 00 -.578396022320D-03 -.181898940355D-11  .000000000000D+00
      .410000000000D+02  .449687500000D+02  .458769109575D-08  .267736557779D+01
      .230595469475D-05  .895469647367D-02  .809691846371D-05  .515371168327D+04
      .475200000000D+06  .117346644402D-06  .764951586458D+00 -.178813934326D-06
      .960736051793D+00  .217156250000D+03  .149603251443D+01 -.776960934970D-08
     -.408588447920D-09  .100000000000D+01  .236000000000D+04  .000000000000D+00
      .200000000000D+01  .000000000000D+00 -.125728547573D-07  .410000000000D+02
      .470916000000D+06  .400000000000D+01
G29 2025 04 04 12 00 00 -.521478708833D-03  .397903932026D-11  .000000000000D+00
      .300000000000D+02  .100156250000D+03  .425303429881D-08 -.929017685201D-01
      .501796603203D-05  .314079492819D-02  .757724046707D-05  .515367752075D+04
      .475200000000D+06  .167638063431D-07  .181845378695D+01 -.558793544769D-07
      .966440961242D+00  .236468750000D+03  .261641471693D+01 -.795140263641D-08
     -.260367988229D-09  .100000000000D+01  .236000000000D+04  .000000000000D+00
      .200000000000D+01  .000000000000D+00 -.977888703346D-08  .300000000000D+02
      .470916000000D+06  .400000000000D+01
G25 2025 04 04 12 00 00  .491327140480D-03 -.102318153949D-11  .000000000000D+00
      .830000000000D+02  .330625000000D+02  .484555897984D-08  .256347289514D+01
      .149197876453D-05  .123353737872D-01  .803172588348D-05  .515364482498D+04
      .475200000000D+06  .372529029846D-07  .674863164474D+00 -.191852450371D-06
      .948937765238D+00  .213687500000D+03  .112376988189D+01 -.780568228086D-08
     -.365372362083D-09  .100000000000D+01  .236000000000D+04  .000000000000D+00
      .200000000000D+01  .000000000000D+00  .558793544769D-08  .830000000000D+02
      .470916000000D+06  .400000000000D+01
G06 2025 04 04 12 00 00 -.285659916699D-03 -.218278728426D-10  .000000000000D+00
      .360000000000D+02  .224687500000D+02  .387194699642D-08 -.209181787181D+01
      .120140612125D-05  .347853882704D-02  .357814133167D-05  .515354552650D+04
      .475200000000D+06  .260770320892D-07  .281036335759D+01 -.186264514923D-08
      .989098975851D+00  .328125000000D+03 -.655638729779D+00 -.796926052312D-08
     -.221437795202D-10  .100000000000D+01  .236000000000D+04  .000000000000D+00
      .200000000000D+01  .000000000000D+00  .372529029846D-08  .360000000000D+02
      .470916000000D+06  .400000000000D+01
